[{"OBJECT_NAME":"STARLINK-11621 [DTC]","OBJECT_ID":"2025-053J","EPOCH":"2025-12-30T12:12:17.252064","MEAN_MOTION":15.70888688,"ECCENTRICITY":0.0001984,"INCLINATION":42.9989,"RA_OF_ASC_NODE":168.8237,"ARG_OF_PERICENTER":291.5798,"MEAN_ANOMALY":68.4858,"EPHEMERIS_TYPE":0,"CLASSIFICATION_TYPE":"U","NORAD_CAT_ID":63273,"ELEMENT_SET_NO":999,"REV_AT_EPOCH":4679,"BSTAR":0.0010847,"MEAN_MOTION_DOT":0.00141416,"MEAN_MOTION_DDOT":0},{"OBJECT_NAME":"STARLINK-11615 [DTC]","OBJECT_ID":"2025-053K","EPOCH":"2025-12-30T20:43:35.880672","MEAN_MOTION":15.71065144,"ECCENTRICITY":0.0003318,"INCLINATION":42.9986,"RA_OF_ASC_NODE":167.2079,"ARG_OF_PERICENTER":255.3956,"MEAN_ANOMALY":104.6544,"EPHEMERIS_TYPE":0,"CLASSIFICATION_TYPE":"U","NORAD_CAT_ID":63274,"ELEMENT_SET_NO":999,"REV_AT_EPOCH":4684,"BSTAR":0.0029085,"MEAN_MOTION_DOT":0.00394755,"MEAN_MOTION_DDOT":0},{"OBJECT_NAME":"STARLINK-11608 [DTC]","OBJECT_ID":"2025-053L","EPOCH":"2025-12-30T20:13:01.017696","MEAN_MOTION":15.70872016,"ECCENTRICITY":0.0001752,"INCLINATION":42.998,"RA_OF_ASC_NODE":167.0376,"ARG_OF_PERICENTER":257.1095,"MEAN_ANOMALY":102.9577,"EPHEMERIS_TYPE":0,"CLASSIFICATION_TYPE":"U","NORAD_CAT_ID":63275,"ELEMENT_SET_NO":999,"REV_AT_EPOCH":4683,"BSTAR":0.00093634353,"MEAN_MOTION_DOT":0.00121635,"MEAN_MOTION_DDOT":0},{"OBJECT_NAME":"STARLINK-11623 [DTC]","OBJECT_ID":"2025-053M","EPOCH":"2025-12-30T19:34:58.962144","MEAN_MOTION":15.70935784,"ECCENTRICITY":0.00021132,"INCLINATION":42.9994,"RA_OF_ASC_NODE":167.7201,"ARG_OF_PERICENTER":293.5244,"MEAN_ANOMALY":66.5401,"EPHEMERIS_TYPE":0,"CLASSIFICATION_TYPE":"U","NORAD_CAT_ID":63276,"ELEMENT_SET_NO":999,"REV_AT_EPOCH":4682,"BSTAR":0.0026668262,"MEAN_MOTION_DOT":0.00358351,"MEAN_MOTION_DDOT":0},{"OBJECT_NAME":"STARLINK-33660","OBJECT_ID":"2025-053P","EPOCH":"2025-12-31T02:52:42.813408","MEAN_MOTION":15.27586823,"ECCENTRICITY":0.00014546,"INCLINATION":43.001,"RA_OF_ASC_NODE":269.2812,"ARG_OF_PERICENTER":248.6104,"MEAN_ANOMALY":111.4593,"EPHEMERIS_TYPE":0,"CLASSIFICATION_TYPE":"U","NORAD_CAT_ID":63278,"ELEMENT_SET_NO":999,"REV_AT_EPOCH":4570,"BSTAR":0.0023199329,"MEAN_MOTION_DOT":0.00064148,"MEAN_MOTION_DDOT":0},{"OBJECT_NAME":"STARLINK-33611","OBJECT_ID":"2025-053Q","EPOCH":"2025-12-31T03:39:27.419616","MEAN_MOTION":15.27604172,"ECCENTRICITY":0.00016407,"INCLINATION":42.9999,"RA_OF_ASC_NODE":265.1946,"ARG_OF_PERICENTER":251.7866,"MEAN_ANOMALY":108.2807,"EPHEMERIS_TYPE":0,"CLASSIFICATION_TYPE":"U","NORAD_CAT_ID":63279,"ELEMENT_SET_NO":999,"REV_AT_EPOCH":4586,"BSTAR":0.0021360887,"MEAN_MOTION_DOT":0.00059034,"MEAN_MOTION_DDOT":0},{"OBJECT_NAME":"STARLINK-33646","OBJECT_ID":"2025-053R","EPOCH":"2025-12-30T18:10:07.116384","MEAN_MOTION":15.27597966,"ECCENTRICITY":0.00020134,"INCLINATION":42.9994,"RA_OF_ASC_NODE":270.8561,"ARG_OF_PERICENTER":283.3467,"MEAN_ANOMALY":76.716,"EPHEMERIS_TYPE":0,"CLASSIFICATION_TYPE":"U","NORAD_CAT_ID":63280,"ELEMENT_SET_NO":999,"REV_AT_EPOCH":4565,"BSTAR":0.001877234,"MEAN_MOTION_DOT":0.00051788,"MEAN_MOTION_DDOT":0},{"OBJECT_NAME":"STARLINK-33665","OBJECT_ID":"2025-053S","EPOCH":"2025-12-31T03:03:36.080352","MEAN_MOTION":15.27581435,"ECCENTRICITY":0.00023053,"INCLINATION":43.0057,"RA_OF_ASC_NODE":268.4687,"ARG_OF_PERICENTER":275.4111,"MEAN_ANOMALY":84.6478,"EPHEMERIS_TYPE":0,"CLASSIFICATION_TYPE":"U","NORAD_CAT_ID":63281,"ELEMENT_SET_NO":999,"REV_AT_EPOCH":4571,"BSTAR":0.0013054375,"MEAN_MOTION_DOT":0.00035838,"MEAN_MOTION_DDOT":0},{"OBJECT_NAME":"STARLINK-33603","OBJECT_ID":"2025-053T","EPOCH":"2025-12-31T02:58:15.472416","MEAN_MOTION":15.27600139,"ECCENTRICITY":0.00019997,"INCLINATION":43.0016,"RA_OF_ASC_NODE":269.2912,"ARG_OF_PERICENTER":280.3908,"MEAN_ANOMALY":79.6719,"EPHEMERIS_TYPE":0,"CLASSIFICATION_TYPE":"U","NORAD_CAT_ID":63282,"ELEMENT_SET_NO":999,"REV_AT_EPOCH":4570,"BSTAR":0.0023259577,"MEAN_MOTION_DOT":0.00064344,"MEAN_MOTION_DDOT":0},{"OBJECT_NAME":"STARLINK-33669","OBJECT_ID":"2025-053U","EPOCH":"2025-12-30T19:23:55.865472","MEAN_MOTION":15.27579233,"ECCENTRICITY":0.00011901,"INCLINATION":43.0015,"RA_OF_ASC_NODE":270.3708,"ARG_OF_PERICENTER":253.059,"MEAN_ANOMALY":107.0131,"EPHEMERIS_TYPE":0,"CLASSIFICATION_TYPE":"U","NORAD_CAT_ID":63283,"ELEMENT_SET_NO":999,"REV_AT_EPOCH":4566,"BSTAR":0.0013181206,"MEAN_MOTION_DOT":0.00036187,"MEAN_MOTION_DDOT":0},{"OBJECT_NAME":"STARLINK-33673","OBJECT_ID":"2025-053V","EPOCH":"2025-12-31T02:26:08.165760","MEAN_MOTION":15.27604907,"ECCENTRICITY":0.00014678,"INCLINATION":42.9998,"RA_OF_ASC_NODE":261.3368,"ARG_OF_PERICENTER":253.6045,"MEAN_ANOMALY":106.4645,"EPHEMERIS_TYPE":0,"CLASSIFICATION_TYPE":"U","NORAD_CAT_ID":63284,"ELEMENT_SET_NO":999,"REV_AT_EPOCH":4590,"BSTAR":0.002222753,"MEAN_MOTION_DOT":0.00061461,"MEAN_MOTION_DDOT":0},{"OBJECT_NAME":"STARLINK-33662","OBJECT_ID":"2025-053W","EPOCH":"2025-12-31T03:46:10.035840","MEAN_MOTION":15.27594522,"ECCENTRICITY":0.00012692,"INCLINATION":43.0005,"RA_OF_ASC_NODE":268.691,"ARG_OF_PERICENTER":331.4013,"MEAN_ANOMALY":28.6769,"EPHEMERIS_TYPE":0,"CLASSIFICATION_TYPE":"U","NORAD_CAT_ID":63285,"ELEMENT_SET_NO":999,"REV_AT_EPOCH":4571,"BSTAR":0.0019131691,"MEAN_MOTION_DOT":0.00052785,"MEAN_MOTION_DDOT":0},{"OBJECT_NAME":"STARLINK-33613","OBJECT_ID":"2025-053X","EPOCH":"2025-12-31T02:43:27.080832","MEAN_MOTION":15.27664405,"ECCENTRICITY":8.998e-5,"INCLINATION":42.9976,"RA_OF_ASC_NODE":269.2341,"ARG_OF_PERICENTER":283.0915,"MEAN_ANOMALY":76.9836,"EPHEMERIS_TYPE":0,"CLASSIFICATION_TYPE":"U","NORAD_CAT_ID":63286,"ELEMENT_SET_NO":999,"REV_AT_EPOCH":4570,"BSTAR":0.0027097439,"MEAN_MOTION_DOT":0.00075262,"MEAN_MOTION_DDOT":0},{"OBJECT_NAME":"STARLINK-33680","OBJECT_ID":"2025-053Y","EPOCH":"2025-12-31T03:23:56.995296","MEAN_MOTION":15.27579306,"ECCENTRICITY":0.00024245,"INCLINATION":42.9995,"RA_OF_ASC_NODE":268.5794,"ARG_OF_PERICENTER":243.7063,"MEAN_ANOMALY":116.354,"EPHEMERIS_TYPE":0,"CLASSIFICATION_TYPE":"U","NORAD_CAT_ID":63287,"ELEMENT_SET_NO":999,"REV_AT_EPOCH":4576,"BSTAR":0.0013365128,"MEAN_MOTION_DOT":0.000367,"MEAN_MOTION_DDOT":0},{"OBJECT_NAME":"STARLINK-11568 [DTC]","OBJECT_ID":"2025-057A","EPOCH":"2025-12-31T06:56:33.176832","MEAN_MOTION":15.70941399,"ECCENTRICITY":0.00014225,"INCLINATION":43.0006,"RA_OF_ASC_NODE":316.5049,"ARG_OF_PERICENTER":315.6287,"MEAN_ANOMALY":44.4467,"EPHEMERIS_TYPE":0,"CLASSIFICATION_TYPE":"U","NORAD_CAT_ID":63307,"ELEMENT_SET_NO":999,"REV_AT_EPOCH":4642,"BSTAR":0.0023449747,"MEAN_MOTION_DOT":0.00313402,"MEAN_MOTION_DDOT":0},{"OBJECT_NAME":"STARLINK-11575 [DTC]","OBJECT_ID":"2025-057B","EPOCH":"2025-12-31T06:03:12.508704","MEAN_MOTION":15.70972482,"ECCENTRICITY":0.00019435,"INCLINATION":42.9992,"RA_OF_ASC_NODE":317.0986,"ARG_OF_PERICENTER":304.5764,"MEAN_ANOMALY":55.492,"EPHEMERIS_TYPE":0,"CLASSIFICATION_TYPE":"U","NORAD_CAT_ID":63308,"ELEMENT_SET_NO":999,"REV_AT_EPOCH":4641,"BSTAR":0.0028924485,"MEAN_MOTION_DOT":0.00390853,"MEAN_MOTION_DDOT":0}]
