STARLINK-11621 [DTC]    
1 63273U 25053J   25364.50853301  .00141416  00000+0  10847-2 0  9999
2 63273  42.9989 168.8237 0001984 291.5798  68.4858 15.70888688 46796
STARLINK-11615 [DTC]    
1 63274U 25053K   25364.86360973  .00394755  00000+0  29085-2 0  9997
2 63274  42.9986 167.2079 0003318 255.3956 104.6544 15.71065144 46844
STARLINK-11608 [DTC]    
1 63275U 25053L   25364.84237289  .00121635  00000+0  93634-3 0  9996
2 63275  42.9980 167.0376 0001752 257.1095 102.9577 15.70872016 46830
STARLINK-11623 [DTC]    
1 63276U 25053M   25364.81596021  .00358351  00000+0  26668-2 0  9995
2 63276  42.9994 167.7201 0002113 293.5244  66.5401 15.70935784 46824
STARLINK-33660          
1 63278U 25053P   25365.11993997  .00064148  00000+0  23199-2 0  9998
2 63278  43.0010 269.2812 0001454 248.6104 111.4593 15.27586823 45702
STARLINK-33611          
1 63279U 25053Q   25365.15240069  .00059034  00000+0  21361-2 0  9995
2 63279  42.9999 265.1946 0001640 251.7866 108.2807 15.27604172 45864
STARLINK-33646          
1 63280U 25053R   25364.75702681  .00051788  00000+0  18772-2 0  9995
2 63280  42.9994 270.8561 0002013 283.3467  76.7160 15.27597966 45650
STARLINK-33665          
1 63281U 25053S   25365.12750093  .00035838  00000+0  13054-2 0  9994
2 63281  43.0057 268.4687 0002305 275.4111  84.6478 15.27581435 45718
STARLINK-33603          
1 63282U 25053T   25365.12379019  .00064344  00000+0  23260-2 0  9994
2 63282  43.0016 269.2912 0001999 280.3908  79.6719 15.27600139 45705
STARLINK-33669          
1 63283U 25053U   25364.80828548  .00036187  00000+0  13181-2 0  9990
2 63283  43.0015 270.3708 0001190 253.0590 107.0131 15.27579233 45667
STARLINK-33673          
1 63284U 25053V   25365.10148340  .00061461  00000+0  22228-2 0  9995
2 63284  42.9998 261.3368 0001467 253.6045 106.4645 15.27604907 45903
STARLINK-33662          
1 63285U 25053W   25365.15706060  .00052785  00000+0  19132-2 0  9999
2 63285  43.0005 268.6910 0001269 331.4013  28.6769 15.27594522 45710
STARLINK-33613          
1 63286U 25053X   25365.11350788  .00075262  00000+0  27097-2 0  9992
2 63286  42.9976 269.2341 0000899 283.0915  76.9836 15.27664405 45700
STARLINK-33680          
1 63287U 25053Y   25365.14163189  .00036700  00000+0  13365-2 0  9990
2 63287  42.9995 268.5794 0002424 243.7063 116.3540 15.27579306 45761
STARLINK-11568 [DTC]    
1 63307U 25057A   25365.28927288  .00313402  00000+0  23450-2 0  9993
2 63307  43.0006 316.5049 0001422 315.6287  44.4467 15.70941399 46426
STARLINK-11575 [DTC]    
1 63308U 25057B   25365.25222811  .00390853  00000+0  28924-2 0  9997
2 63308  42.9992 317.0986 0001943 304.5764  55.4920 15.70972482 46412
